{
  "type": "FeatureCollection",
  "features": [
    {
      "type": "Feature",
      "properties": {
        "norad_id": 38091,
        "name": "BEIDOU-2 G5 (C05)",
        "group": "gnss",
        "lat": -0.08332223055149425,
        "lon": -108.26011122222387,
        "alt_km": 35751.69447465613,
        "timestamp": "2025-12-19T06:59:44.150395+00:00",
        "meta_object_name": "BEIDOU-2 G5 (C05)",
        "meta_object_id": "2012-008A",
        "meta_epoch": "2025-12-18T20:25:21.161568",
        "meta_mean_motion": 1.00268356,
        "meta_eccentricity": 0.00129713,
        "meta_inclination": 3.1239,
        "meta_ra_of_asc_node": 70.6894,
        "meta_arg_of_pericenter": 231.2316,
        "meta_mean_anomaly": 150.9156,
        "meta_ephemeris_type": 0,
        "meta_classification_type": "U",
        "meta_norad_cat_id": 38091,
        "meta_element_set_no": 999,
        "meta_rev_at_epoch": 5056,
        "meta_bstar": 0,
        "meta_mean_motion_dot": 7.9e-07,
        "meta_mean_motion_ddot": 0,
        "tle_line1": "1 38091U 12008A   25352.85093937  .00000079  00000+0  00000+0 0  9997",
        "tle_line2": "2 38091   3.1239  70.6894 0012971 231.2316 150.9156  1.00268356 50567"
      },
      "geometry": {
        "type": "Point",
        "coordinates": [
          -108.26011122222387,
          -0.08332223055149425
        ]
      }
    },
    {
      "type": "Feature",
      "properties": {
        "norad_id": 38250,
        "name": "BEIDOU-2 M3 (C11)",
        "group": "gnss",
        "lat": -8.983234619527167,
        "lon": -55.22686092356441,
        "alt_km": 21511.066193714953,
        "timestamp": "2025-12-19T06:59:44.150406+00:00",
        "meta_object_name": "BEIDOU-2 M3 (C11)",
        "meta_object_id": "2012-018A",
        "meta_epoch": "2025-12-18T05:36:36.842400",
        "meta_mean_motion": 1.86230021,
        "meta_eccentricity": 0.00242148,
        "meta_inclination": 55.9152,
        "meta_ra_of_asc_node": 310.9725,
        "meta_arg_of_pericenter": 274.7921,
        "meta_mean_anomaly": 84.917,
        "meta_ephemeris_type": 0,
        "meta_classification_type": "U",
        "meta_norad_cat_id": 38250,
        "meta_element_set_no": 999,
        "meta_rev_at_epoch": 9257,
        "meta_bstar": 0,
        "meta_mean_motion_dot": -8.6e-07,
        "meta_mean_motion_ddot": 0,
        "tle_line1": "1 38250U 12018A   25352.23375975 -.00000086  00000+0  00000+0 0  9991",
        "tle_line2": "2 38250  55.9152 310.9725 0024214 274.7921  84.9170  1.86230021 92574"
      },
      "geometry": {
        "type": "Point",
        "coordinates": [
          -55.22686092356441,
          -8.983234619527167
        ]
      }
    },
    {
      "type": "Feature",
      "properties": {
        "norad_id": 38251,
        "name": "BEIDOU-2 M4 (C12)",
        "group": "gnss",
        "lat": 28.080630090877627,
        "lon": -28.61720904776952,
        "alt_km": 21543.789564131424,
        "timestamp": "2025-12-19T06:59:44.150430+00:00",
        "meta_object_name": "BEIDOU-2 M4 (C12)",
        "meta_object_id": "2012-018B",
        "meta_epoch": "2025-12-18T03:58:46.817760",
        "meta_mean_motion": 1.86229697,
        "meta_eccentricity": 0.00154218,
        "meta_inclination": 55.8167,
        "meta_ra_of_asc_node": 310.2031,
        "meta_arg_of_pericenter": 278.3297,
        "meta_mean_anomaly": 81.4813,
        "meta_ephemeris_type": 0,
        "meta_classification_type": "U",
        "meta_norad_cat_id": 38251,
        "meta_element_set_no": 999,
        "meta_rev_at_epoch": 9257,
        "meta_bstar": 0,
        "meta_mean_motion_dot": -8.6e-07,
        "meta_mean_motion_ddot": 0,
        "tle_line1": "1 38251U 12018B   25352.16581965 -.00000086  00000+0  00000+0 0  9992",
        "tle_line2": "2 38251  55.8167 310.2031 0015421 278.3297  81.4813  1.86229697 92572"
      },
      "geometry": {
        "type": "Point",
        "coordinates": [
          -28.61720904776952,
          28.080630090877627
        ]
      }
    },
    {
      "type": "Feature",
      "properties": {
        "norad_id": 38652,
        "name": "SES-5 (EGNOS/PRN 136)",
        "group": "gnss",
        "lat": -0.06412308154793801,
        "lon": -161.98401261068835,
        "alt_km": 35783.3108566892,
        "timestamp": "2025-12-19T06:59:44.150444+00:00",
        "meta_object_name": "SES-5 (EGNOS/PRN 136)",
        "meta_object_id": "2012-036A",
        "meta_epoch": "2025-12-18T13:19:11.535168",
        "meta_mean_motion": 1.00270056,
        "meta_eccentricity": 0.00018187,
        "meta_inclination": 0.0555,
        "meta_ra_of_asc_node": 307.3887,
        "meta_arg_of_pericenter": 315.9373,
        "meta_mean_anomaly": 28.8626,
        "meta_ephemeris_type": 0,
        "meta_classification_type": "U",
        "meta_norad_cat_id": 38652,
        "meta_element_set_no": 999,
        "meta_rev_at_epoch": 4264,
        "meta_bstar": 0,
        "meta_mean_motion_dot": 5.9e-07,
        "meta_mean_motion_ddot": 0,
        "tle_line1": "1 38652U 12036A   25352.55499462  .00000059  00000+0  00000+0 0  9999",
        "tle_line2": "2 38652   0.0555 307.3887 0001818 315.9373  28.8626  1.00270056 42645"
      },
      "geometry": {
        "type": "Point",
        "coordinates": [
          -161.98401261068835,
          -0.06412308154793801
        ]
      }
    },
    {
      "type": "Feature",
      "properties": {
        "norad_id": 38775,
        "name": "BEIDOU-2 M6 (C14)",
        "group": "gnss",
        "lat": -38.54237178978729,
        "lon": -79.18813289481965,
        "alt_km": 21546.161254231574,
        "timestamp": "2025-12-19T06:59:44.150457+00:00",
        "meta_object_name": "BEIDOU-2 M6 (C14)",
        "meta_object_id": "2012-050B",
        "meta_epoch": "2025-12-18T09:55:40.044288",
        "meta_mean_motion": 1.8623091,
        "meta_eccentricity": 0.00113703,
        "meta_inclination": 56.3831,
        "meta_ra_of_asc_node": 68.8791,
        "meta_arg_of_pericenter": 343.3858,
        "meta_mean_anomaly": 16.6071,
        "meta_ephemeris_type": 0,
        "meta_classification_type": "U",
        "meta_norad_cat_id": 38775,
        "meta_element_set_no": 999,
        "meta_rev_at_epoch": 8994,
        "meta_bstar": 0,
        "meta_mean_motion_dot": -6.3e-07,
        "meta_mean_motion_ddot": 0,
        "tle_line1": "1 38775U 12050B   25352.41365792 -.00000063  00000+0  00000+0 0  9990",
        "tle_line2": "2 38775  56.3831  68.8791 0011370 343.3858  16.6071  1.86230910 89944"
      },
      "geometry": {
        "type": "Point",
        "coordinates": [
          -79.18813289481965,
          -38.54237178978729
        ]
      }
    },
    {
      "type": "Feature",
      "properties": {
        "norad_id": 38779,
        "name": "GSAT-10 (GAGAN/PRN 128)",
        "group": "gnss",
        "lat": -0.011106572460016999,
        "lon": -83.89595550650776,
        "alt_km": 35795.11027226914,
        "timestamp": "2025-12-19T06:59:44.150469+00:00",
        "meta_object_name": "GSAT-10 (GAGAN/PRN 128)",
        "meta_object_id": "2012-051B",
        "meta_epoch": "2025-12-18T15:24:07.068672",
        "meta_mean_motion": 1.00272485,
        "meta_eccentricity": 0.00024695,
        "meta_inclination": 0.0769,
        "meta_ra_of_asc_node": 265.4602,
        "meta_arg_of_pericenter": 219.0133,
        "meta_mean_anomaly": 277.0818,
        "meta_ephemeris_type": 0,
        "meta_classification_type": "U",
        "meta_norad_cat_id": 38779,
        "meta_element_set_no": 999,
        "meta_rev_at_epoch": 4828,
        "meta_bstar": 0,
        "meta_mean_motion_dot": -1.4e-06,
        "meta_mean_motion_ddot": 0,
        "tle_line1": "1 38779U 12051B   25352.64174848 -.00000140  00000+0  00000+0 0  9996",
        "tle_line2": "2 38779   0.0769 265.4602 0002469 219.0133 277.0818  1.00272485 48287"
      },
      "geometry": {
        "type": "Point",
        "coordinates": [
          -83.89595550650776,
          -0.011106572460016999
        ]
      }
    },
    {
      "type": "Feature",
      "properties": {
        "norad_id": 38833,
        "name": "GPS BIIF-3  (PRN 24)",
        "group": "gnss",
        "lat": -23.6223410954173,
        "lon": 132.09895954079354,
        "alt_km": 20209.508003951887,
        "timestamp": "2025-12-19T06:59:44.150480+00:00",
        "meta_object_name": "GPS BIIF-3  (PRN 24)",
        "meta_object_id": "2012-053A",
        "meta_epoch": "2025-12-18T08:03:02.727072",
        "meta_mean_motion": 2.00565083,
        "meta_eccentricity": 0.01760229,
        "meta_inclination": 53.559,
        "meta_ra_of_asc_node": 151.0095,
        "meta_arg_of_pericenter": 64.0757,
        "meta_mean_anomaly": 297.7154,
        "meta_ephemeris_type": 0,
        "meta_classification_type": "U",
        "meta_norad_cat_id": 38833,
        "meta_element_set_no": 999,
        "meta_rev_at_epoch": 9581,
        "meta_bstar": 0,
        "meta_mean_motion_dot": 6.1e-07,
        "meta_mean_motion_ddot": 0,
        "tle_line1": "1 38833U 12053A   25352.33544823  .00000061  00000+0  00000+0 0  9990",
        "tle_line2": "2 38833  53.5590 151.0095 0176022  64.0757 297.7154  2.00565083 95819"
      },
      "geometry": {
        "type": "Point",
        "coordinates": [
          132.09895954079354,
          -23.6223410954173
        ]
      }
    }
  ]
}